[{"OBJECT_NAME":"STARLINK-2446","OBJECT_ID":"2021-018BK","EPOCH":"2026-03-09T21:50:56.098464","MEAN_MOTION":15.31042385,"ECCENTRICITY":0.00013745,"INCLINATION":53.1633,"RA_OF_ASC_NODE":244.8755,"ARG_OF_PERICENTER":91.3752,"MEAN_ANOMALY":268.7407,"EPHEMERIS_TYPE":0,"CLASSIFICATION_TYPE":"U","NORAD_CAT_ID":47844,"ELEMENT_SET_NO":999,"REV_AT_EPOCH":27671,"BSTAR":3.1842405e-5,"MEAN_MOTION_DOT":6.06e-6,"MEAN_MOTION_DDOT":0},{"OBJECT_NAME":"HYPERFIELD-1A","OBJECT_ID":"2024-149CY","EPOCH":"2026-03-09T18:21:25.814304","MEAN_MOTION":15.29681349,"ECCENTRICITY":0.00038648,"INCLINATION":97.3842,"RA_OF_ASC_NODE":149.5066,"ARG_OF_PERICENTER":313.7844,"MEAN_ANOMALY":46.3076,"EPHEMERIS_TYPE":0,"CLASSIFICATION_TYPE":"U","NORAD_CAT_ID":60562,"ELEMENT_SET_NO":999,"REV_AT_EPOCH":8683,"BSTAR":0.00030052114,"MEAN_MOTION_DOT":8.569e-5,"MEAN_MOTION_DDOT":0}]
